#aV2007  9  4  0  0   .00000000      96 DD+AD WGS84 FIT  NGA
## 1443 172800.00000000   900.00000000 54347  .0000000000000
+   31     1  2  3  4  5  6  7  8  9 10 11 12 13 14 16 17 18
+         19 20 21 22 23 24 25 26 27 28 29 30 31 32  0  0  0
+          0  0  0  0  0  0  0  0  0  0  0  0  0  0  0  0  0
+          0  0  0  0  0  0  0  0  0  0  0  0  0  0  0  0  0
+          0  0  0  0  0  0  0  0  0  0  0  0  0  0  0  0  0
++         0  0  0  0  0  0  0  0  0  0  0  0  0  0  0  0  0
++         0  0  0  0  0  0  0  0  0  0  0  0  0  0  0  0  0
++         0  0  0  0  0  0  0  0  0  0  0  0  0  0  0  0  0
++         0  0  0  0  0  0  0  0  0  0  0  0  0  0  0  0  0
++         0  0  0  0  0  0  0  0  0  0  0  0  0  0  0  0  0
%c cc cc ccc ccc cccc cccc cccc cccc ccccc ccccc ccccc ccccc
%c cc cc ccc ccc cccc cccc cccc cccc ccccc ccccc ccccc ccccc
%f  0.0000000  0.000000000  0.00000000000  0.000000000000000
%f  0.0000000  0.000000000  0.00000000000  0.000000000000000
%i    0    0    0    0      0      0      0      0         0
%i    0    0    0    0      0      0      0      0         0
/*      NGA, ST. LOUIS,MO.                                  
/*   EPHEMERIS COMPUTED FROM  3 DAYS OF DATA                
/* CCCCCCCCCCCCCCCCCCCCCCCCCCCCCCCCCCCCCCCCCCCCCCCCCCCCCCCCC
/* CCCCCCCCCCCCCCCCCCCCCCCCCCCCCCCCCCCCCCCCCCCCCCCCCCCCCCCCC
*  2007  9  4 23  0   .00000000                                                 
P  1  20430.726488  17021.216307    859.260292    150.499893                    
V  1  -1764.007886    883.196780  32334.221934       .025324                    
P  2 -13499.382405 -11468.494259 -20070.089507    134.127594                    
V  2   3360.512515 -24826.116220  11739.833133       .027713                    
P  3  24398.527425   9493.096504   5229.838318    111.194628                    
V  3   4211.772643   6491.801667 -29805.081182       .053657                    
P  4  -7331.571483 -21586.120413 -13391.679993     -3.056535                    
V  4   4722.211813 -16650.862652  24735.214998      -.027590                    
P  5 -19880.126042  16428.930113  -6267.327197    358.918700                    
V  5  -8365.604738    814.921478  30032.093597       .352853                    
P  6  -5638.276537  14934.315559 -21037.836977    246.697109                    
V  6 -23027.791051 -14595.888355  -4184.503058      -.006044                    
P  7  -3231.962320  15937.812968 -20648.610019   -128.564893                    
V  7 -23446.973420 -13648.761203  -6796.666497       .283742                    
P  8   -153.443516 -25643.230459   5806.416676   -121.525833                    
V  8   3627.874353  -7144.480639 -31308.066588      -.014265                    
P  9 -13693.723958  11791.564855  18785.310801     86.263936                    
V  9      2.946657 -25254.831098  15550.592248       .016274                    
P 10 -22196.894007  -1714.996186 -14837.343243     47.634074                    
V 10  16386.167820  -8742.968582 -23376.625471      -.535978                    
P 11  13385.127039 -14055.217682  17896.884063     23.217640                    
V 11   4401.195780  23072.661732  15039.792483       .005079                    
P 12 -24002.731432  11273.681247   -525.472850    -55.038947                    
V 12  -1878.563650  -2255.103345  31822.594580      -.012871                    
P 13   5131.394188 -14113.365986 -22018.220500    203.865310                    
V 13  21959.544690  16723.607447  -5604.033108       .030079                    
P 14  12864.910260  19818.078655  12315.311190     39.494150                    
V 14 -13225.779965  -8067.626810  26897.587576       .022439                    
P 16  18418.916895   5797.387539 -18233.810092    173.672550                    
V 16 -20751.242998  10549.331720 -17377.015689       .022904                    
P 17 -11348.724281 -19962.272949  13484.186336     55.627448                    
V 17  15027.232819   8313.838669  24855.410270      -.011778                    
P 18 -10092.328606  17400.393644  17318.583391   -237.642013                    
V 18 -21016.596126   6319.475340 -19116.993254       .016797                    
P 19  21103.071764   2703.278184  16082.446721     63.036261                    
V 19  14425.039913  14257.584487 -21315.326457       .025411                    
P 20  22330.798401 -13757.843668  -4181.041008    -29.122486                    
V 20   6012.483142    586.725650  30965.587645      -.005607                    
P 21  -5967.415321  25269.791499  -3648.166878     78.435243                    
V 21  -3349.265228  -5376.990621 -31159.619923      -.001632                    
P 22   3837.582868  15145.243376  21636.542793    196.707467                    
V 22 -25320.585598   9774.635149  -2413.488491       .010102                    
P 23  15034.818077  -6812.515122 -20933.580428    197.952245                    
V 23  20992.575134  15891.102884   9719.543518       .038613                    
P 24 -12562.716409  19144.771173 -13498.582097     28.058157                    
V 24    410.581406 -17510.262657 -24565.233390       .029860                    
P 25   7246.119759 -23332.378005 -10239.890071    429.587582                    
V 25   2421.102296  13495.484900 -27897.903188       .111376                    
P 26 -22295.335523  -6730.902714  12821.718427     16.135338                    
V 26 -12500.265113 -11231.839451 -26164.811464       .136313                    
P 27   3058.884197 -26007.169337  -3011.671590    133.067429                    
V 27   2731.513840   4748.616306 -31690.887967       .023426                    
P 28   -394.508133 -16053.854602  21444.230439     -6.305120                    
V 28  24678.940336  -9651.005330  -7223.215469      -.007171                    
P 29 -23354.770181  -9012.526565   9645.815047      5.470401                    
V 29  -8775.971238  -8010.982401 -28964.841442       .002210                    
P 30 -15961.087537  17636.754590 -12030.076655     44.698676                    
V 30 -14489.187790   4208.001502  26206.873939       .012154                    
P 31   8963.813441  19436.741369 -15480.677490     10.614057                    
V 31  -3898.241096  19759.257432  22339.177453      -.012710                    
P 32  15380.128781   9048.474767  20098.238747     44.440975                    
V 32 -22750.028871   9163.911397  13733.794713       .173610                    
EOF
